{
  "type": "FeatureCollection",
  "features": [
    {
      "type": "Feature",
      "properties": {
        "norad_id": 57400,
        "name": "TIANMU-1 08",
        "group": "weather",
        "lat": -77.12628738621737,
        "lon": 64.61480086461475,
        "alt_km": 494.5350279421473,
        "timestamp": "2025-12-06T18:50:09.814380+00:00",
        "meta_object_name": "TIANMU-1 08",
        "meta_object_id": "2023-101B",
        "meta_epoch": "2025-12-06T06:36:33.009120",
        "meta_mean_motion": 15.27917493,
        "meta_eccentricity": 0.00075486,
        "meta_inclination": 97.2871,
        "meta_ra_of_asc_node": 30.0678,
        "meta_arg_of_pericenter": 101.8229,
        "meta_mean_anomaly": 258.3858,
        "meta_ephemeris_type": 0,
        "meta_classification_type": "U",
        "meta_norad_cat_id": 57400,
        "meta_element_set_no": 999,
        "meta_rev_at_epoch": 13216,
        "meta_bstar": 0.00046140762,
        "meta_mean_motion_dot": 0.00012518,
        "meta_mean_motion_ddot": 0,
        "tle_line1": "1 57400U 23101B   25340.27538205  .00012518  00000+0  46141-3 0  9994",
        "tle_line2": "2 57400  97.2871  30.0678 0007548 101.8229 258.3858 15.27917493132163"
      },
      "geometry": {
        "type": "Point",
        "coordinates": [
          64.61480086461475,
          -77.12628738621737
        ]
      }
    },
    {
      "type": "Feature",
      "properties": {
        "norad_id": 57401,
        "name": "TIANMU-1 09",
        "group": "weather",
        "lat": -7.412990050196232,
        "lon": 31.03590812588771,
        "alt_km": 487.29633495710186,
        "timestamp": "2025-12-06T18:50:09.814393+00:00",
        "meta_object_name": "TIANMU-1 09",
        "meta_object_id": "2023-101C",
        "meta_epoch": "2025-12-06T06:17:40.957440",
        "meta_mean_motion": 15.27941722,
        "meta_eccentricity": 0.00068068,
        "meta_inclination": 97.2827,
        "meta_ra_of_asc_node": 29.5719,
        "meta_arg_of_pericenter": 101.3684,
        "meta_mean_anomaly": 258.8321,
        "meta_ephemeris_type": 0,
        "meta_classification_type": "U",
        "meta_norad_cat_id": 57401,
        "meta_element_set_no": 999,
        "meta_rev_at_epoch": 13216,
        "meta_bstar": 0.00045611169,
        "meta_mean_motion_dot": 0.0001238,
        "meta_mean_motion_ddot": 0,
        "tle_line1": "1 57401U 23101C   25340.26227960  .00012380  00000+0  45611-3 0  9995",
        "tle_line2": "2 57401  97.2827  29.5719 0006806 101.3684 258.8321 15.27941722132162"
      },
      "geometry": {
        "type": "Point",
        "coordinates": [
          31.03590812588771,
          -7.412990050196232
        ]
      }
    },
    {
      "type": "Feature",
      "properties": {
        "norad_id": 57402,
        "name": "TIANMU-1 10",
        "group": "weather",
        "lat": 14.830568358518912,
        "lon": -147.13129146194427,
        "alt_km": 480.4151026208865,
        "timestamp": "2025-12-06T18:50:09.814402+00:00",
        "meta_object_name": "TIANMU-1 10",
        "meta_object_id": "2023-101D",
        "meta_epoch": "2025-12-06T07:06:54.093024",
        "meta_mean_motion": 15.27932786,
        "meta_eccentricity": 0.00085341,
        "meta_inclination": 97.2907,
        "meta_ra_of_asc_node": 30.4483,
        "meta_arg_of_pericenter": 102.0869,
        "meta_mean_anomaly": 258.1328,
        "meta_ephemeris_type": 0,
        "meta_classification_type": "U",
        "meta_norad_cat_id": 57402,
        "meta_element_set_no": 999,
        "meta_rev_at_epoch": 13216,
        "meta_bstar": 0.00048822291,
        "meta_mean_motion_dot": 0.0001326,
        "meta_mean_motion_ddot": 0,
        "tle_line1": "1 57402U 23101D   25340.29645941  .00013260  00000+0  48822-3 0  9997",
        "tle_line2": "2 57402  97.2907  30.4483 0008534 102.0869 258.1328 15.27932786132164"
      },
      "geometry": {
        "type": "Point",
        "coordinates": [
          -147.13129146194427,
          14.830568358518912
        ]
      }
    },
    {
      "type": "Feature",
      "properties": {
        "norad_id": 57490,
        "name": "FENGYUN 3F",
        "group": "weather",
        "lat": -37.836518193976055,
        "lon": -137.66364660732168,
        "alt_km": 832.3838600033932,
        "timestamp": "2025-12-06T18:50:09.814412+00:00",
        "meta_object_name": "FENGYUN 3F",
        "meta_object_id": "2023-111A",
        "meta_epoch": "2025-12-06T05:58:21.937728",
        "meta_mean_motion": 14.19891007,
        "meta_eccentricity": 6.614e-05,
        "meta_inclination": 98.7094,
        "meta_ra_of_asc_node": 48.6468,
        "meta_arg_of_pericenter": 89.687,
        "meta_mean_anomaly": 270.4382,
        "meta_ephemeris_type": 0,
        "meta_classification_type": "U",
        "meta_norad_cat_id": 57490,
        "meta_element_set_no": 999,
        "meta_rev_at_epoch": 12148,
        "meta_bstar": 0.00011772022,
        "meta_mean_motion_dot": 2.06e-06,
        "meta_mean_motion_ddot": 0,
        "tle_line1": "1 57490U 23111A   25340.24886502  .00000206  00000+0  11772-3 0  9990",
        "tle_line2": "2 57490  98.7094  48.6468 0000661  89.6870 270.4382 14.19891007121483"
      },
      "geometry": {
        "type": "Point",
        "coordinates": [
          -137.66364660732168,
          -37.836518193976055
        ]
      }
    },
    {
      "type": "Feature",
      "properties": {
        "norad_id": 58584,
        "name": "ARKTIKA-M 2",
        "group": "weather",
        "lat": 15.962933691647029,
        "lon": -12.773809906276217,
        "alt_km": 10972.572167088863,
        "timestamp": "2025-12-06T18:50:09.814424+00:00",
        "meta_object_name": "ARKTIKA-M 2",
        "meta_object_id": "2023-198A",
        "meta_epoch": "2025-12-03T08:34:19.284960",
        "meta_mean_motion": 2.00605176,
        "meta_eccentricity": 0.68642509,
        "meta_inclination": 63.2223,
        "meta_ra_of_asc_node": 175.9121,
        "meta_arg_of_pericenter": 268.1397,
        "meta_mean_anomaly": 18.842,
        "meta_ephemeris_type": 0,
        "meta_classification_type": "U",
        "meta_norad_cat_id": 58584,
        "meta_element_set_no": 999,
        "meta_rev_at_epoch": 1439,
        "meta_bstar": 0,
        "meta_mean_motion_dot": 2.24e-06,
        "meta_mean_motion_ddot": 0,
        "tle_line1": "1 58584U 23198A   25337.35716765  .00000224  00000+0  00000+0 0  9999",
        "tle_line2": "2 58584  63.2223 175.9121 6864250 268.1397  18.8420  2.00605176 14390"
      },
      "geometry": {
        "type": "Point",
        "coordinates": [
          -12.773809906276217,
          15.962933691647029
        ]
      }
    },
    {
      "type": "Feature",
      "properties": {
        "norad_id": 58645,
        "name": "TIANMU-1 11",
        "group": "weather",
        "lat": 57.356409086107796,
        "lon": -11.128131260664524,
        "alt_km": 486.1979177905114,
        "timestamp": "2025-12-06T18:50:09.814437+00:00",
        "meta_object_name": "TIANMU-1 11",
        "meta_object_id": "2023-205A",
        "meta_epoch": "2025-12-06T07:33:18.522144",
        "meta_mean_motion": 15.24483321,
        "meta_eccentricity": 0.00085179,
        "meta_inclination": 97.3603,
        "meta_ra_of_asc_node": 0.0515,
        "meta_arg_of_pericenter": 336.0617,
        "meta_mean_anomaly": 24.0224,
        "meta_ephemeris_type": 0,
        "meta_classification_type": "U",
        "meta_norad_cat_id": 58645,
        "meta_element_set_no": 999,
        "meta_rev_at_epoch": 10811,
        "meta_bstar": 0.00041770052,
        "meta_mean_motion_dot": 0.00010208,
        "meta_mean_motion_ddot": 0,
        "tle_line1": "1 58645U 23205A   25340.31479771  .00010208  00000+0  41770-3 0  9995",
        "tle_line2": "2 58645  97.3603   0.0515 0008517 336.0617  24.0224 15.24483321108114"
      },
      "geometry": {
        "type": "Point",
        "coordinates": [
          -11.128131260664524,
          57.356409086107796
        ]
      }
    },
    {
      "type": "Feature",
      "properties": {
        "norad_id": 58646,
        "name": "TIANMU-1 12",
        "group": "weather",
        "lat": -82.18690437493649,
        "lon": 70.68970326526552,
        "alt_km": 496.9176476480343,
        "timestamp": "2025-12-06T18:50:09.814449+00:00",
        "meta_object_name": "TIANMU-1 12",
        "meta_object_id": "2023-205B",
        "meta_epoch": "2025-12-06T05:02:23.781408",
        "meta_mean_motion": 15.24395386,
        "meta_eccentricity": 0.00063702,
        "meta_inclination": 97.359,
        "meta_ra_of_asc_node": 359.7563,
        "meta_arg_of_pericenter": 321.1327,
        "meta_mean_anomaly": 38.9451,
        "meta_ephemeris_type": 0,
        "meta_classification_type": "U",
        "meta_norad_cat_id": 58646,
        "meta_element_set_no": 999,
        "meta_rev_at_epoch": 10808,
        "meta_bstar": 0.0004578296,
        "meta_mean_motion_dot": 0.00011162,
        "meta_mean_motion_ddot": 0,
        "tle_line1": "1 58646U 23205B   25340.20999747  .00011162  00000+0  45783-3 0  9992",
        "tle_line2": "2 58646  97.3590 359.7563 0006370 321.1327  38.9451 15.24395386108080"
      },
      "geometry": {
        "type": "Point",
        "coordinates": [
          70.68970326526552,
          -82.18690437493649
        ]
      }
    }
  ]
}